{
  "type": "FeatureCollection",
  "features": [
    {
      "type": "Feature",
      "properties": {
        "norad_id": 66415,
        "name": "HULIANWANG DIGUI 13D",
        "group": "last-30-days",
        "lat": 19.384367210596693,
        "lon": 94.04599505538992,
        "alt_km": 820.8290982381232,
        "timestamp": "2025-12-05T18:53:12.095650+00:00",
        "meta_object_name": "HULIANWANG DIGUI 13D",
        "meta_object_id": "2025-258D",
        "meta_epoch": "2025-12-04T23:37:54.362208",
        "meta_mean_motion": 14.23498639,
        "meta_eccentricity": 0.00133565,
        "meta_inclination": 50.0043,
        "meta_ra_of_asc_node": 294.6029,
        "meta_arg_of_pericenter": 335.9481,
        "meta_mean_anomaly": 24.0807,
        "meta_ephemeris_type": 0,
        "meta_classification_type": "U",
        "meta_norad_cat_id": 66415,
        "meta_element_set_no": 999,
        "meta_rev_at_epoch": 355,
        "meta_bstar": 0.00015207685,
        "meta_mean_motion_dot": 1.89e-06,
        "meta_mean_motion_ddot": 0,
        "tle_line1": "1 66415U 25258D   25338.98465697  .00000189  00000+0  15208-3 0  9995",
        "tle_line2": "2 66415  50.0043 294.6029 0013356 335.9481  24.0807 14.23498639  3552"
      },
      "geometry": {
        "type": "Point",
        "coordinates": [
          94.04599505538992,
          19.384367210596693
        ]
      }
    },
    {
      "type": "Feature",
      "properties": {
        "norad_id": 66416,
        "name": "HULIANWANG DIGUI 13E",
        "group": "last-30-days",
        "lat": 34.430930052499384,
        "lon": 76.137977374052,
        "alt_km": 817.0425194482314,
        "timestamp": "2025-12-05T18:53:12.095664+00:00",
        "meta_object_name": "HULIANWANG DIGUI 13E",
        "meta_object_id": "2025-258E",
        "meta_epoch": "2025-12-04T13:37:29.545248",
        "meta_mean_motion": 14.23473083,
        "meta_eccentricity": 0.00127373,
        "meta_inclination": 50.0042,
        "meta_ra_of_asc_node": 296.4032,
        "meta_arg_of_pericenter": 336.0461,
        "meta_mean_anomaly": 23.9858,
        "meta_ephemeris_type": 0,
        "meta_classification_type": "U",
        "meta_norad_cat_id": 66416,
        "meta_element_set_no": 999,
        "meta_rev_at_epoch": 349,
        "meta_bstar": 0.00015573528,
        "meta_mean_motion_dot": 1.97e-06,
        "meta_mean_motion_ddot": 0,
        "tle_line1": "1 66416U 25258E   25338.56770307  .00000197  00000+0  15574-3 0  9992",
        "tle_line2": "2 66416  50.0042 296.4032 0012737 336.0461  23.9858 14.23473083  3491"
      },
      "geometry": {
        "type": "Point",
        "coordinates": [
          76.137977374052,
          34.430930052499384
        ]
      }
    },
    {
      "type": "Feature",
      "properties": {
        "norad_id": 66417,
        "name": "HULIANWANG DIGUI 13F",
        "group": "last-30-days",
        "lat": 29.884869611071156,
        "lon": 82.38492258751712,
        "alt_km": 818.0947832605498,
        "timestamp": "2025-12-05T18:53:12.095673+00:00",
        "meta_object_name": "HULIANWANG DIGUI 13F",
        "meta_object_id": "2025-258F",
        "meta_epoch": "2025-12-05T01:23:10.533984",
        "meta_mean_motion": 14.23479417,
        "meta_eccentricity": 0.00124281,
        "meta_inclination": 49.9996,
        "meta_ra_of_asc_node": 294.3044,
        "meta_arg_of_pericenter": 335.9417,
        "meta_mean_anomaly": 24.0914,
        "meta_ephemeris_type": 0,
        "meta_classification_type": "U",
        "meta_norad_cat_id": 66417,
        "meta_element_set_no": 999,
        "meta_rev_at_epoch": 356,
        "meta_bstar": 0.00015744342,
        "meta_mean_motion_dot": 2.01e-06,
        "meta_mean_motion_ddot": 0,
        "tle_line1": "1 66417U 25258F   25339.05776081  .00000201  00000+0  15744-3 0  9998",
        "tle_line2": "2 66417  49.9996 294.3044 0012428 335.9417  24.0914 14.23479417  3563"
      },
      "geometry": {
        "type": "Point",
        "coordinates": [
          82.38492258751712,
          29.884869611071156
        ]
      }
    },
    {
      "type": "Feature",
      "properties": {
        "norad_id": 66418,
        "name": "HULIANWANG DIGUI 13G",
        "group": "last-30-days",
        "lat": 14.471076700076893,
        "lon": 98.6825084787956,
        "alt_km": 820.9329345443521,
        "timestamp": "2025-12-05T18:53:12.095684+00:00",
        "meta_object_name": "HULIANWANG DIGUI 13G",
        "meta_object_id": "2025-258G",
        "meta_epoch": "2025-12-05T02:58:12.585792",
        "meta_mean_motion": 14.23490924,
        "meta_eccentricity": 0.00124572,
        "meta_inclination": 50.0018,
        "meta_ra_of_asc_node": 293.9878,
        "meta_arg_of_pericenter": 331.6839,
        "meta_mean_anomaly": 28.3395,
        "meta_ephemeris_type": 0,
        "meta_classification_type": "U",
        "meta_norad_cat_id": 66418,
        "meta_element_set_no": 999,
        "meta_rev_at_epoch": 357,
        "meta_bstar": 0.00014733867,
        "meta_mean_motion_dot": 1.78e-06,
        "meta_mean_motion_ddot": 0,
        "tle_line1": "1 66418U 25258G   25339.12375678  .00000178  00000+0  14734-3 0  9995",
        "tle_line2": "2 66418  50.0018 293.9878 0012457 331.6839  28.3395 14.23490924  3572"
      },
      "geometry": {
        "type": "Point",
        "coordinates": [
          98.6825084787956,
          14.471076700076893
        ]
      }
    },
    {
      "type": "Feature",
      "properties": {
        "norad_id": 66419,
        "name": "HULIANWANG DIGUI 13H",
        "group": "last-30-days",
        "lat": 8.6416022449993,
        "lon": 103.84821846029814,
        "alt_km": 821.3062057274601,
        "timestamp": "2025-12-05T18:53:12.095696+00:00",
        "meta_object_name": "HULIANWANG DIGUI 13H",
        "meta_object_id": "2025-258H",
        "meta_epoch": "2025-12-04T16:49:30.563616",
        "meta_mean_motion": 14.23507714,
        "meta_eccentricity": 0.00120837,
        "meta_inclination": 50.0006,
        "meta_ra_of_asc_node": 295.75,
        "meta_arg_of_pericenter": 331.5709,
        "meta_mean_anomaly": 28.4543,
        "meta_ephemeris_type": 0,
        "meta_classification_type": "U",
        "meta_norad_cat_id": 66419,
        "meta_element_set_no": 999,
        "meta_rev_at_epoch": 351,
        "meta_bstar": 0.0001454091,
        "meta_mean_motion_dot": 1.74e-06,
        "meta_mean_motion_ddot": 0,
        "tle_line1": "1 66419U 25258H   25338.70104819  .00000174  00000+0  14541-3 0  9998",
        "tle_line2": "2 66419  50.0006 295.7500 0012083 331.5709  28.4543 14.23507714  3518"
      },
      "geometry": {
        "type": "Point",
        "coordinates": [
          103.84821846029814,
          8.6416022449993
        ]
      }
    },
    {
      "type": "Feature",
      "properties": {
        "norad_id": 66420,
        "name": "HULIANWANG DIGUI 13J",
        "group": "last-30-days",
        "lat": 4.305096671971556,
        "lon": 107.55686429010719,
        "alt_km": 821.6039233733491,
        "timestamp": "2025-12-05T18:53:12.095706+00:00",
        "meta_object_name": "HULIANWANG DIGUI 13J",
        "meta_object_id": "2025-258J",
        "meta_epoch": "2025-12-05T06:16:37.291872",
        "meta_mean_motion": 14.23476087,
        "meta_eccentricity": 0.00114176,
        "meta_inclination": 50.0022,
        "meta_ra_of_asc_node": 293.3918,
        "meta_arg_of_pericenter": 340.5413,
        "meta_mean_anomaly": 19.5063,
        "meta_ephemeris_type": 0,
        "meta_classification_type": "U",
        "meta_norad_cat_id": 66420,
        "meta_element_set_no": 999,
        "meta_rev_at_epoch": 358,
        "meta_bstar": 0.00013184932,
        "meta_mean_motion_dot": 1.42e-06,
        "meta_mean_motion_ddot": 0,
        "tle_line1": "1 66420U 25258J   25339.26154273  .00000142  00000+0  13185-3 0  9999",
        "tle_line2": "2 66420  50.0022 293.3918 0011417 340.5413  19.5063 14.23476087  3580"
      },
      "geometry": {
        "type": "Point",
        "coordinates": [
          107.55686429010719,
          4.305096671971556
        ]
      }
    },
    {
      "type": "Feature",
      "properties": {
        "norad_id": 66421,
        "name": "CZ-12 R/B",
        "group": "last-30-days",
        "lat": -17.905283028794788,
        "lon": -87.6267652033993,
        "alt_km": 770.3981374398982,
        "timestamp": "2025-12-05T18:53:12.095716+00:00",
        "meta_object_name": "CZ-12 R/B",
        "meta_object_id": "2025-258K",
        "meta_epoch": "2025-12-05T07:21:25.335936",
        "meta_mean_motion": 14.42317618,
        "meta_eccentricity": 0.00646228,
        "meta_inclination": 49.9965,
        "meta_ra_of_asc_node": 290.2012,
        "meta_arg_of_pericenter": 222.6836,
        "meta_mean_anomaly": 136.9054,
        "meta_ephemeris_type": 0,
        "meta_classification_type": "U",
        "meta_norad_cat_id": 66421,
        "meta_element_set_no": 999,
        "meta_rev_at_epoch": 364,
        "meta_bstar": 4.0172725e-05,
        "meta_mean_motion_dot": -3.4e-07,
        "meta_mean_motion_ddot": 0,
        "tle_line1": "1 66421U 25258K   25339.30654324 -.00000034  00000+0  40173-4 0  9996",
        "tle_line2": "2 66421  49.9965 290.2012 0064622 222.6836 136.9054 14.42317618  3646"
      },
      "geometry": {
        "type": "Point",
        "coordinates": [
          -87.6267652033993,
          -17.905283028794788
        ]
      }
    }
  ]
}